[{"OBJECT_NAME":"ONEWEB-0392","OBJECT_ID":"2021-132D","EPOCH":"2025-08-18T13:13:17.413536","MEAN_MOTION":13.17648809,"ECCENTRICITY":0.0001902,"INCLINATION":87.9029,"RA_OF_ASC_NODE":66.0545,"ARG_OF_PERICENTER":100.0961,"MEAN_ANOMALY":260.0385,"EPHEMERIS_TYPE":0,"CLASSIFICATION_TYPE":"U","NORAD_CAT_ID":50472,"ELEMENT_SET_NO":999,"REV_AT_EPOCH":17826,"BSTAR":0.00018795,"MEAN_MOTION_DOT":8.6e-7,"MEAN_MOTION_DDOT":0},{"OBJECT_NAME":"ONEWEB-0393","OBJECT_ID":"2021-132E","EPOCH":"2025-08-18T12:34:33.927456","MEAN_MOTION":13.17651111,"ECCENTRICITY":0.0001813,"INCLINATION":87.9031,"RA_OF_ASC_NODE":66.0797,"ARG_OF_PERICENTER":93.7458,"MEAN_ANOMALY":266.388,"EPHEMERIS_TYPE":0,"CLASSIFICATION_TYPE":"U","NORAD_CAT_ID":50473,"ELEMENT_SET_NO":999,"REV_AT_EPOCH":17825,"BSTAR":0.00011748,"MEAN_MOTION_DOT":5.9e-7,"MEAN_MOTION_DDOT":0},{"OBJECT_NAME":"ONEWEB-0394","OBJECT_ID":"2021-132F","EPOCH":"2025-08-18T12:03:22.950144","MEAN_MOTION":13.18685809,"ECCENTRICITY":0.0001954,"INCLINATION":87.9143,"RA_OF_ASC_NODE":35.5518,"ARG_OF_PERICENTER":95.9692,"MEAN_ANOMALY":264.1663,"EPHEMERIS_TYPE":0,"CLASSIFICATION_TYPE":"U","NORAD_CAT_ID":50474,"ELEMENT_SET_NO":999,"REV_AT_EPOCH":18170,"BSTAR":0.00026752,"MEAN_MOTION_DOT":1.18e-6,"MEAN_MOTION_DDOT":0},{"OBJECT_NAME":"ONEWEB-0395","OBJECT_ID":"2021-132G","EPOCH":"2025-08-18T13:46:38.401248","MEAN_MOTION":13.11416533,"ECCENTRICITY":0.0001595,"INCLINATION":87.878,"RA_OF_ASC_NODE":81.3894,"ARG_OF_PERICENTER":93.8866,"MEAN_ANOMALY":266.2445,"EPHEMERIS_TYPE":0,"CLASSIFICATION_TYPE":"U","NORAD_CAT_ID":50475,"ELEMENT_SET_NO":999,"REV_AT_EPOCH":17605,"BSTAR":0.0016994,"MEAN_MOTION_DOT":6.15e-6,"MEAN_MOTION_DDOT":0},{"OBJECT_NAME":"ONEWEB-0396","OBJECT_ID":"2021-132H","EPOCH":"2025-08-18T11:53:53.040192","MEAN_MOTION":13.18686182,"ECCENTRICITY":0.0001902,"INCLINATION":87.9144,"RA_OF_ASC_NODE":35.5654,"ARG_OF_PERICENTER":95.0078,"MEAN_ANOMALY":265.1271,"EPHEMERIS_TYPE":0,"CLASSIFICATION_TYPE":"U","NORAD_CAT_ID":50476,"ELEMENT_SET_NO":999,"REV_AT_EPOCH":18174,"BSTAR":0.00022763,"MEAN_MOTION_DOT":1.03e-6,"MEAN_MOTION_DDOT":0},{"OBJECT_NAME":"ONEWEB-0397","OBJECT_ID":"2021-132J","EPOCH":"2025-08-18T12:15:14.846400","MEAN_MOTION":13.1868675,"ECCENTRICITY":0.0001999,"INCLINATION":87.9141,"RA_OF_ASC_NODE":35.5635,"ARG_OF_PERICENTER":91.8545,"MEAN_ANOMALY":268.2816,"EPHEMERIS_TYPE":0,"CLASSIFICATION_TYPE":"U","NORAD_CAT_ID":50477,"ELEMENT_SET_NO":999,"REV_AT_EPOCH":18172,"BSTAR":0.00010854,"MEAN_MOTION_DOT":5.6e-7,"MEAN_MOTION_DDOT":0},{"OBJECT_NAME":"ONEWEB-0398","OBJECT_ID":"2021-132K","EPOCH":"2025-08-18T13:00:13.920192","MEAN_MOTION":13.11416951,"ECCENTRICITY":0.0001316,"INCLINATION":87.8788,"RA_OF_ASC_NODE":81.3593,"ARG_OF_PERICENTER":86.9552,"MEAN_ANOMALY":273.1727,"EPHEMERIS_TYPE":0,"CLASSIFICATION_TYPE":"U","NORAD_CAT_ID":50478,"ELEMENT_SET_NO":999,"REV_AT_EPOCH":17594,"BSTAR":-0.0014135,"MEAN_MOTION_DOT":-4.88e-6,"MEAN_MOTION_DDOT":0},{"OBJECT_NAME":"ONEWEB-0399","OBJECT_ID":"2021-132L","EPOCH":"2025-08-18T14:30:34.073856","MEAN_MOTION":13.11414701,"ECCENTRICITY":0.0002043,"INCLINATION":87.8779,"RA_OF_ASC_NODE":81.3701,"ARG_OF_PERICENTER":87.9204,"MEAN_ANOMALY":272.2158,"EPHEMERIS_TYPE":0,"CLASSIFICATION_TYPE":"U","NORAD_CAT_ID":50479,"ELEMENT_SET_NO":999,"REV_AT_EPOCH":17594,"BSTAR":-0.0010676,"MEAN_MOTION_DOT":-3.66e-6,"MEAN_MOTION_DDOT":0},{"OBJECT_NAME":"ONEWEB-0400","OBJECT_ID":"2021-132M","EPOCH":"2025-08-18T11:44:21.981120","MEAN_MOTION":13.18688132,"ECCENTRICITY":0.0001598,"INCLINATION":87.9141,"RA_OF_ASC_NODE":35.5579,"ARG_OF_PERICENTER":94.6631,"MEAN_ANOMALY":265.4684,"EPHEMERIS_TYPE":0,"CLASSIFICATION_TYPE":"U","NORAD_CAT_ID":50480,"ELEMENT_SET_NO":999,"REV_AT_EPOCH":18171,"BSTAR":0.00031223,"MEAN_MOTION_DOT":1.36e-6,"MEAN_MOTION_DDOT":0},{"OBJECT_NAME":"ONEWEB-0401","OBJECT_ID":"2021-132N","EPOCH":"2025-08-18T10:59:15.155520","MEAN_MOTION":13.18685074,"ECCENTRICITY":0.0001976,"INCLINATION":87.9143,"RA_OF_ASC_NODE":35.5601,"ARG_OF_PERICENTER":88.7871,"MEAN_ANOMALY":271.3488,"EPHEMERIS_TYPE":0,"CLASSIFICATION_TYPE":"U","NORAD_CAT_ID":50481,"ELEMENT_SET_NO":999,"REV_AT_EPOCH":18171,"BSTAR":0.00015726,"MEAN_MOTION_DOT":7.5e-7,"MEAN_MOTION_DDOT":0},{"OBJECT_NAME":"ONEWEB-0402","OBJECT_ID":"2021-132P","EPOCH":"2025-08-18T11:56:15.686592","MEAN_MOTION":13.18687146,"ECCENTRICITY":0.0002325,"INCLINATION":87.9143,"RA_OF_ASC_NODE":35.546,"ARG_OF_PERICENTER":83.344,"MEAN_ANOMALY":276.7957,"EPHEMERIS_TYPE":0,"CLASSIFICATION_TYPE":"U","NORAD_CAT_ID":50482,"ELEMENT_SET_NO":999,"REV_AT_EPOCH":18174,"BSTAR":8.4457e-5,"MEAN_MOTION_DOT":4.6e-7,"MEAN_MOTION_DDOT":0},{"OBJECT_NAME":"ONEWEB-0403","OBJECT_ID":"2021-132Q","EPOCH":"2025-08-18T12:31:53.221728","MEAN_MOTION":13.18687675,"ECCENTRICITY":0.0001812,"INCLINATION":87.9143,"RA_OF_ASC_NODE":35.5596,"ARG_OF_PERICENTER":96.1071,"MEAN_ANOMALY":264.0268,"EPHEMERIS_TYPE":0,"CLASSIFICATION_TYPE":"U","NORAD_CAT_ID":50483,"ELEMENT_SET_NO":999,"REV_AT_EPOCH":18170,"BSTAR":0.00013759,"MEAN_MOTION_DOT":6.7e-7,"MEAN_MOTION_DDOT":0},{"OBJECT_NAME":"ONEWEB-0404","OBJECT_ID":"2021-132R","EPOCH":"2025-08-18T14:03:43.298784","MEAN_MOTION":13.11414754,"ECCENTRICITY":0.0001855,"INCLINATION":87.8785,"RA_OF_ASC_NODE":81.3793,"ARG_OF_PERICENTER":95.6584,"MEAN_ANOMALY":264.4756,"EPHEMERIS_TYPE":0,"CLASSIFICATION_TYPE":"U","NORAD_CAT_ID":50484,"ELEMENT_SET_NO":999,"REV_AT_EPOCH":17603,"BSTAR":0.0011591,"MEAN_MOTION_DOT":4.24e-6,"MEAN_MOTION_DDOT":0},{"OBJECT_NAME":"ONEWEB-0405","OBJECT_ID":"2021-132S","EPOCH":"2025-08-18T11:03:58.864608","MEAN_MOTION":13.18685931,"ECCENTRICITY":0.0002078,"INCLINATION":87.9141,"RA_OF_ASC_NODE":35.5578,"ARG_OF_PERICENTER":89.7659,"MEAN_ANOMALY":270.3711,"EPHEMERIS_TYPE":0,"CLASSIFICATION_TYPE":"U","NORAD_CAT_ID":50485,"ELEMENT_SET_NO":999,"REV_AT_EPOCH":18209,"BSTAR":0.00017971,"MEAN_MOTION_DOT":8.4e-7,"MEAN_MOTION_DDOT":0},{"OBJECT_NAME":"ONEWEB-0406","OBJECT_ID":"2021-132T","EPOCH":"2025-08-18T12:39:00.632160","MEAN_MOTION":13.18686847,"ECCENTRICITY":0.0001671,"INCLINATION":87.9144,"RA_OF_ASC_NODE":35.5676,"ARG_OF_PERICENTER":111.31,"MEAN_ANOMALY":248.8211,"EPHEMERIS_TYPE":0,"CLASSIFICATION_TYPE":"U","NORAD_CAT_ID":50486,"ELEMENT_SET_NO":999,"REV_AT_EPOCH":18173,"BSTAR":6.085e-5,"MEAN_MOTION_DOT":3.7e-7,"MEAN_MOTION_DDOT":0},{"OBJECT_NAME":"ONEWEB-0407","OBJECT_ID":"2021-132U","EPOCH":"2025-08-18T10:40:14.775744","MEAN_MOTION":13.18684909,"ECCENTRICITY":0.0001941,"INCLINATION":87.9142,"RA_OF_ASC_NODE":35.5691,"ARG_OF_PERICENTER":92.5532,"MEAN_ANOMALY":267.5822,"EPHEMERIS_TYPE":0,"CLASSIFICATION_TYPE":"U","NORAD_CAT_ID":50487,"ELEMENT_SET_NO":999,"REV_AT_EPOCH":18166,"BSTAR":7.7249e-5,"MEAN_MOTION_DOT":4.3e-7,"MEAN_MOTION_DDOT":0},{"OBJECT_NAME":"ONEWEB-0409","OBJECT_ID":"2021-132V","EPOCH":"2025-08-18T14:01:16.853376","MEAN_MOTION":13.11414749,"ECCENTRICITY":0.0001604,"INCLINATION":87.8775,"RA_OF_ASC_NODE":81.3391,"ARG_OF_PERICENTER":95.284,"MEAN_ANOMALY":264.8471,"EPHEMERIS_TYPE":0,"CLASSIFICATION_TYPE":"U","NORAD_CAT_ID":50488,"ELEMENT_SET_NO":999,"REV_AT_EPOCH":17592,"BSTAR":0.0012352,"MEAN_MOTION_DOT":4.5e-6,"MEAN_MOTION_DDOT":0}]
