ONEWEB-0392             
1 50472U 21132D   25230.55089599  .00000086  00000+0  18795-3 0  9995
2 50472  87.9029  66.0545 0001902 100.0961 260.0385 13.17648809178265
ONEWEB-0393             
1 50473U 21132E   25230.52400379  .00000059  00000+0  11748-3 0  9997
2 50473  87.9031  66.0797 0001813  93.7458 266.3880 13.17651111178256
ONEWEB-0394             
1 50474U 21132F   25230.50234896  .00000118  00000+0  26752-3 0  9992
2 50474  87.9143  35.5518 0001954  95.9692 264.1663 13.18685809181704
ONEWEB-0395             
1 50475U 21132G   25230.57405557  .00000615  00000+0  16994-2 0  9992
2 50475  87.8780  81.3894 0001595  93.8866 266.2445 13.11416533176050
ONEWEB-0396             
1 50476U 21132H   25230.49575278  .00000103  00000+0  22763-3 0  9996
2 50476  87.9144  35.5654 0001902  95.0078 265.1271 13.18686182181745
ONEWEB-0397             
1 50477U 21132J   25230.51058850  .00000056  00000+0  10854-3 0  9997
2 50477  87.9141  35.5635 0001999  91.8545 268.2816 13.18686750181729
ONEWEB-0398             
1 50478U 21132K   25230.54182778 -.00000488  00000+0 -14135-2 0  9994
2 50478  87.8788  81.3593 0001316  86.9552 273.1727 13.11416951175944
ONEWEB-0399             
1 50479U 21132L   25230.60456104 -.00000366  00000+0 -10676-2 0  9990
2 50479  87.8779  81.3701 0002043  87.9204 272.2158 13.11414701175948
ONEWEB-0400             
1 50480U 21132M   25230.48914330  .00000136  00000+0  31223-3 0  9993
2 50480  87.9141  35.5579 0001598  94.6631 265.4684 13.18688132181719
ONEWEB-0401             
1 50481U 21132N   25230.45781430  .00000075  00000+0  15726-3 0  9996
2 50481  87.9143  35.5601 0001976  88.7871 271.3488 13.18685074181718
ONEWEB-0402             
1 50482U 21132P   25230.49740378  .00000046  00000+0  84457-4 0  9993
2 50482  87.9143  35.5460 0002325  83.3440 276.7957 13.18687146181749
ONEWEB-0403             
1 50483U 21132Q   25230.52214377  .00000067  00000+0  13759-3 0  9992
2 50483  87.9143  35.5596 0001812  96.1071 264.0268 13.18687675181700
ONEWEB-0404             
1 50484U 21132R   25230.58591781  .00000424  00000+0  11591-2 0  9994
2 50484  87.8785  81.3793 0001855  95.6584 264.4756 13.11414754176035
ONEWEB-0405             
1 50485U 21132S   25230.46109797  .00000084  00000+0  17971-3 0  9995
2 50485  87.9141  35.5578 0002078  89.7659 270.3711 13.18685931182094
ONEWEB-0406             
1 50486U 21132T   25230.52709065  .00000037  00000+0  60850-4 0  9990
2 50486  87.9144  35.5676 0001671 111.3100 248.8211 13.18686847181730
ONEWEB-0407             
1 50487U 21132U   25230.44461546  .00000043  00000+0  77249-4 0  9998
2 50487  87.9142  35.5691 0001941  92.5532 267.5822 13.18684909181660
ONEWEB-0409             
1 50488U 21132V   25230.58422284  .00000450  00000+0  12352-2 0  9994
2 50488  87.8775  81.3391 0001604  95.2840 264.8471 13.11414749175924
